{
  "type": "FeatureCollection",
  "features": [
    {
      "type": "Feature",
      "properties": {
        "norad_id": 66337,
        "name": "STARLINK-34783",
        "group": "last-30-days",
        "lat": -31.575018141248613,
        "lon": -6.987740446030009,
        "alt_km": 446.43864240662515,
        "timestamp": "2025-12-04T07:39:34.997747+00:00",
        "meta_object_name": "STARLINK-34783",
        "meta_object_id": "2025-253U",
        "meta_epoch": "2025-12-03T22:00:03.000096",
        "meta_mean_motion": 15.4075334,
        "meta_eccentricity": 0.00014258,
        "meta_inclination": 43.0009,
        "meta_ra_of_asc_node": 36.5958,
        "meta_arg_of_pericenter": 258.2396,
        "meta_mean_anomaly": 336.7786,
        "meta_ephemeris_type": 0,
        "meta_classification_type": "U",
        "meta_norad_cat_id": 66337,
        "meta_element_set_no": 999,
        "meta_rev_at_epoch": 556,
        "meta_bstar": -0.0040449059,
        "meta_mean_motion_dot": -0.00165942,
        "meta_mean_motion_ddot": 0,
        "tle_line1": "1 66337U 25253U   25337.91670139 -.00165942  00000+0 -40449-2 0  9999",
        "tle_line2": "2 66337  43.0009  36.5958 0001425 258.2396 336.7786 15.40753340  5564"
      },
      "geometry": {
        "type": "Point",
        "coordinates": [
          -6.987740446030009,
          -31.575018141248613
        ]
      }
    },
    {
      "type": "Feature",
      "properties": {
        "norad_id": 66338,
        "name": "STARLINK-35477",
        "group": "last-30-days",
        "lat": -42.886586821708484,
        "lon": -51.002968836977445,
        "alt_km": 446.4556518394311,
        "timestamp": "2025-12-04T07:39:34.997757+00:00",
        "meta_object_name": "STARLINK-35477",
        "meta_object_id": "2025-253V",
        "meta_epoch": "2025-12-03T05:35:16.635552",
        "meta_mean_motion": 15.40809844,
        "meta_eccentricity": 5.956e-05,
        "meta_inclination": 43.0004,
        "meta_ra_of_asc_node": 40.627,
        "meta_arg_of_pericenter": 180.5283,
        "meta_mean_anomaly": 179.5574,
        "meta_ephemeris_type": 0,
        "meta_classification_type": "U",
        "meta_norad_cat_id": 66338,
        "meta_element_set_no": 999,
        "meta_rev_at_epoch": 545,
        "meta_bstar": 0.0022359396,
        "meta_mean_motion_dot": 0.00094607,
        "meta_mean_motion_ddot": 0,
        "tle_line1": "1 66338U 25253V   25337.23283143  .00094607  00000+0  22359-2 0  9997",
        "tle_line2": "2 66338  43.0004  40.6270 0000595 180.5283 179.5574 15.40809844  5459"
      },
      "geometry": {
        "type": "Point",
        "coordinates": [
          -51.002968836977445,
          -42.886586821708484
        ]
      }
    },
    {
      "type": "Feature",
      "properties": {
        "norad_id": 66339,
        "name": "STARLINK-35443",
        "group": "last-30-days",
        "lat": 36.92510683521031,
        "lon": 87.75194337231973,
        "alt_km": 439.16117793661397,
        "timestamp": "2025-12-04T07:39:34.997767+00:00",
        "meta_object_name": "STARLINK-35443",
        "meta_object_id": "2025-253W",
        "meta_epoch": "2025-12-03T22:00:03.000096",
        "meta_mean_motion": 15.4070529,
        "meta_eccentricity": 0.00014757,
        "meta_inclination": 43.0007,
        "meta_ra_of_asc_node": 36.3216,
        "meta_arg_of_pericenter": 270.9373,
        "meta_mean_anomaly": 76.0428,
        "meta_ephemeris_type": 0,
        "meta_classification_type": "U",
        "meta_norad_cat_id": 66339,
        "meta_element_set_no": 999,
        "meta_rev_at_epoch": 556,
        "meta_bstar": -0.0015963896,
        "meta_mean_motion_dot": -0.00066423,
        "meta_mean_motion_ddot": 0,
        "tle_line1": "1 66339U 25253W   25337.91670139 -.00066423  00000+0 -15964-2 0  9999",
        "tle_line2": "2 66339  43.0007  36.3216 0001475 270.9373  76.0428 15.40705290  5568"
      },
      "geometry": {
        "type": "Point",
        "coordinates": [
          87.75194337231973,
          36.92510683521031
        ]
      }
    },
    {
      "type": "Feature",
      "properties": {
        "norad_id": 66340,
        "name": "STARLINK-35218",
        "group": "last-30-days",
        "lat": 41.40886103483917,
        "lon": 142.74618626906798,
        "alt_km": 409.4547882636725,
        "timestamp": "2025-12-04T07:39:34.997776+00:00",
        "meta_object_name": "STARLINK-35218",
        "meta_object_id": "2025-253X",
        "meta_epoch": "2025-12-03T15:45:17.245440",
        "meta_mean_motion": 15.50611769,
        "meta_eccentricity": 0.00026021,
        "meta_inclination": 42.9997,
        "meta_ra_of_asc_node": 37.7801,
        "meta_arg_of_pericenter": 248.9513,
        "meta_mean_anomaly": 111.1069,
        "meta_ephemeris_type": 0,
        "meta_classification_type": "U",
        "meta_norad_cat_id": 66340,
        "meta_element_set_no": 999,
        "meta_rev_at_epoch": 552,
        "meta_bstar": 0.0017884047,
        "meta_mean_motion_dot": 0.00106139,
        "meta_mean_motion_ddot": 0,
        "tle_line1": "1 66340U 25253X   25337.65644960  .00106139  00000+0  17884-2 0  9995",
        "tle_line2": "2 66340  42.9997  37.7801 0002602 248.9513 111.1069 15.50611769  5521"
      },
      "geometry": {
        "type": "Point",
        "coordinates": [
          142.74618626906798,
          41.40886103483917
        ]
      }
    },
    {
      "type": "Feature",
      "properties": {
        "norad_id": 66341,
        "name": "STARLINK-35522",
        "group": "last-30-days",
        "lat": 42.33714976263765,
        "lon": 111.84549409388192,
        "alt_km": 427.46559415522734,
        "timestamp": "2025-12-04T07:39:34.997788+00:00",
        "meta_object_name": "STARLINK-35522",
        "meta_object_id": "2025-253Y",
        "meta_epoch": "2025-12-03T22:00:03.000096",
        "meta_mean_motion": 15.46263657,
        "meta_eccentricity": 0.00017503,
        "meta_inclination": 43.0004,
        "meta_ra_of_asc_node": 36.295,
        "meta_arg_of_pericenter": 263.94,
        "meta_mean_anomaly": 95.4995,
        "meta_ephemeris_type": 0,
        "meta_classification_type": "U",
        "meta_norad_cat_id": 66341,
        "meta_element_set_no": 999,
        "meta_rev_at_epoch": 560,
        "meta_bstar": -0.045293576,
        "meta_mean_motion_dot": -0.0203371,
        "meta_mean_motion_ddot": 0,
        "tle_line1": "1 66341U 25253Y   25337.91670139 -.02033710  00000+0 -45294-1 0  9995",
        "tle_line2": "2 66341  43.0004  36.2950 0001750 263.9400  95.4995 15.46263657  5602"
      },
      "geometry": {
        "type": "Point",
        "coordinates": [
          111.84549409388192,
          42.33714976263765
        ]
      }
    },
    {
      "type": "Feature",
      "properties": {
        "norad_id": 66342,
        "name": "STARLINK-35535",
        "group": "last-30-days",
        "lat": 8.164373022053837,
        "lon": 42.97950463383007,
        "alt_km": 443.3578593507409,
        "timestamp": "2025-12-04T07:39:34.997797+00:00",
        "meta_object_name": "STARLINK-35535",
        "meta_object_id": "2025-253Z",
        "meta_epoch": "2025-12-03T22:00:03.000096",
        "meta_mean_motion": 15.40757966,
        "meta_eccentricity": 0.00015005,
        "meta_inclination": 43.0008,
        "meta_ra_of_asc_node": 36.4429,
        "meta_arg_of_pericenter": 261.4144,
        "meta_mean_anomaly": 35.8496,
        "meta_ephemeris_type": 0,
        "meta_classification_type": "U",
        "meta_norad_cat_id": 66342,
        "meta_element_set_no": 999,
        "meta_rev_at_epoch": 551,
        "meta_bstar": -0.0052952141,
        "meta_mean_motion_dot": -0.00215779,
        "meta_mean_motion_ddot": 0,
        "tle_line1": "1 66342U 25253Z   25337.91670139 -.00215779  00000+0 -52952-2 0  9991",
        "tle_line2": "2 66342  43.0008  36.4429 0001500 261.4144  35.8496 15.40757966  5510"
      },
      "geometry": {
        "type": "Point",
        "coordinates": [
          42.97950463383007,
          8.164373022053837
        ]
      }
    },
    {
      "type": "Feature",
      "properties": {
        "norad_id": 66343,
        "name": "STARLINK-35467",
        "group": "last-30-days",
        "lat": -16.922989940242573,
        "lon": 15.157341839784118,
        "alt_km": 445.65927527126314,
        "timestamp": "2025-12-04T07:39:34.997807+00:00",
        "meta_object_name": "STARLINK-35467",
        "meta_object_id": "2025-253AA",
        "meta_epoch": "2025-12-03T22:00:03.000096",
        "meta_mean_motion": 15.40834888,
        "meta_eccentricity": 0.00011687,
        "meta_inclination": 43.0008,
        "meta_ra_of_asc_node": 36.5338,
        "meta_arg_of_pericenter": 262.2354,
        "meta_mean_anomaly": 357.6451,
        "meta_ephemeris_type": 0,
        "meta_classification_type": "U",
        "meta_norad_cat_id": 66343,
        "meta_element_set_no": 999,
        "meta_rev_at_epoch": 551,
        "meta_bstar": -0.0063341411,
        "meta_mean_motion_dot": -0.00257319,
        "meta_mean_motion_ddot": 0,
        "tle_line1": "1 66343U 25253AA  25337.91670139 -.00257319  00000+0 -63341-2 0  9992",
        "tle_line2": "2 66343  43.0008  36.5338 0001168 262.2354 357.6451 15.40834888  5518"
      },
      "geometry": {
        "type": "Point",
        "coordinates": [
          15.157341839784118,
          -16.922989940242573
        ]
      }
    }
  ]
}